{"type": "FeatureCollection", "features": [ {"type": "Feature", "properties": {"norad_id": 34079, "name": "IRIDIUM 33 DEB", "group": "iridium-33-debris", "lat": 21.623906341675692, "lon": -179.42752734110115, "alt_km": 619.1888759211688, "timestamp": "2025-12-27T08:36:18.768893+00:00", "meta": {"OBJECT_NAME": "IRIDIUM 33 DEB", "OBJECT_ID": "1997-051CN", "EPOCH": "2025-12-27T01:42:51.323040", "MEAN_MOTION": 14.83927191, "ECCENTRICITY": 0.0003744, "INCLINATION": 86.3778, "RA_OF_ASC_NODE": 2.142, "ARG_OF_PERICENTER": 311.9974, "MEAN_ANOMALY": 113.4004, "EPHEMERIS_TYPE": 0, "CLASSIFICATION_TYPE": "U", "NORAD_CAT_ID": 34079, "ELEMENT_SET_NO": 999, "REV_AT_EPOCH": 89190, "BSTAR": 0.0022888, "MEAN_MOTION_DOT": 0.00019073, "MEAN_MOTION_DDOT": 0}, "tle": {"line1": "1 34079U 97051CN  25361.07142735  .00019073  00000+0  22888-2 0  9990", "line2": "2 34079  86.3778   2.1420 0003744 311.9974 113.4004 14.83927191891900"}}, "geometry": {"type": "Point", "coordinates": [-179.42752734110115, 21.623906341675692]}}, {"type": "Feature", "properties": {"norad_id": 34088, "name": "IRIDIUM 33 DEB", "group": "iridium-33-debris", "lat": -50.44245739914754, "lon": 19.612507403832584, "alt_km": 603.560077902579, "timestamp": "2025-12-27T08:36:18.768905+00:00", "meta": {"OBJECT_NAME": "IRIDIUM 33 DEB", "OBJECT_ID": "1997-051CX", "EPOCH": "2025-12-27T02:38:55.250880", "MEAN_MOTION": 14.92046916, "ECCENTRICITY": 0.0007215, "INCLINATION": 86.3846, "RA_OF_ASC_NODE": 24.1166, "ARG_OF_PERICENTER": 132.7861, "MEAN_ANOMALY": 284.4811, "EPHEMERIS_TYPE": 0, "CLASSIFICATION_TYPE": "U", "NORAD_CAT_ID": 34088, "ELEMENT_SET_NO": 999, "REV_AT_EPOCH": 88956, "BSTAR": 0.0029256, "MEAN_MOTION_DOT": 0.0002981, "MEAN_MOTION_DDOT": 0}, "tle": {"line1": "1 34088U 97051CX  25361.11036170  .00029810  00000+0  29256-2 0  9996", "line2": "2 34088  86.3846  24.1166 0007215 132.7861 284.4811 14.92046916889569"}}, "geometry": {"type": "Point", "coordinates": [19.612507403832584, -50.44245739914754]}}, {"type": "Feature", "properties": {"norad_id": 34091, "name": "IRIDIUM 33 DEB", "group": "iridium-33-debris", "lat": 3.5358901362289687, "lon": 60.35968610879462, "alt_km": 635.6792410383305, "timestamp": "2025-12-27T08:36:18.768917+00:00", "meta": {"OBJECT_NAME": "IRIDIUM 33 DEB", "OBJECT_ID": "1997-051DA", "EPOCH": "2025-12-27T03:43:50.479104", "MEAN_MOTION": 14.82901423, "ECCENTRICITY": 0.0034302, "INCLINATION": 86.3407, "RA_OF_ASC_NODE": 60.2263, "ARG_OF_PERICENTER": 241.6733, "MEAN_ANOMALY": 118.1028, "EPHEMERIS_TYPE": 0, "CLASSIFICATION_TYPE": "U", "NORAD_CAT_ID": 34091, "ELEMENT_SET_NO": 999, "REV_AT_EPOCH": 88080, "BSTAR": 0.0057593, "MEAN_MOTION_DOT": 0.00047447, "MEAN_MOTION_DDOT": 0}, "tle": {"line1": "1 34091U 97051DA  25361.15544536  .00047447  00000+0  57593-2 0  9995", "line2": "2 34091  86.3407  60.2263 0034302 241.6733 118.1028 14.82901423880803"}}, "geometry": {"type": "Point", "coordinates": [60.35968610879462, 3.5358901362289687]}}, {"type": "Feature", "properties": {"norad_id": 34097, "name": "IRIDIUM 33 DEB", "group": "iridium-33-debris", "lat": -84.35255963340668, "lon": -47.26362150845186, "alt_km": 738.2057594509479, "timestamp": "2025-12-27T08:36:18.768928+00:00", "meta": {"OBJECT_NAME": "IRIDIUM 33 DEB", "OBJECT_ID": "1997-051DG", "EPOCH": "2025-12-26T22:57:25.330752", "MEAN_MOTION": 14.34897502, "ECCENTRICITY": 0.0081165, "INCLINATION": 86.2009, "RA_OF_ASC_NODE": 355.1315, "ARG_OF_PERICENTER": 315.5596, "MEAN_ANOMALY": 43.9106, "EPHEMERIS_TYPE": 0, "CLASSIFICATION_TYPE": "U", "NORAD_CAT_ID": 34097, "ELEMENT_SET_NO": 999, "REV_AT_EPOCH": 87323, "BSTAR": 0.0019362, "MEAN_MOTION_DOT": 5.728e-05, "MEAN_MOTION_DDOT": 0}, "tle": {"line1": "1 34097U 97051DG  25360.95654318  .00005728  00000+0  19362-2 0  9996", "line2": "2 34097  86.2009 355.1315 0081165 315.5596  43.9106 14.34897502873237"}}, "geometry": {"type": "Point", "coordinates": [-47.26362150845186, -84.35255963340668]}}, {"type": "Feature", "properties": {"norad_id": 34145, "name": "IRIDIUM 33 DEB", "group": "iridium-33-debris", "lat": -38.569084567431915, "lon": 149.04356012529297, "alt_km": 796.1089684772733, "timestamp": "2025-12-27T08:36:18.768939+00:00", "meta": {"OBJECT_NAME": "IRIDIUM 33 DEB", "OBJECT_ID": "1997-051DY", "EPOCH": "2025-12-27T02:36:09.705888", "MEAN_MOTION": 14.42400271, "ECCENTRICITY": 0.0055377, "INCLINATION": 86.2127, "RA_OF_ASC_NODE": 326.1271, "ARG_OF_PERICENTER": 48.2173, "MEAN_ANOMALY": 312.3739, "EPHEMERIS_TYPE": 0, "CLASSIFICATION_TYPE": "U", "NORAD_CAT_ID": 34145, "ELEMENT_SET_NO": 999, "REV_AT_EPOCH": 87845, "BSTAR": 0.0016358, "MEAN_MOTION_DOT": 5.529e-05, "MEAN_MOTION_DDOT": 0}, "tle": {"line1": "1 34145U 97051DY  25361.10844567  .00005529  00000+0  16358-2 0  9996", "line2": "2 34145  86.2127 326.1271 0055377  48.2173 312.3739 14.42400271878454"}}, "geometry": {"type": "Point", "coordinates": [149.04356012529297, -38.569084567431915]}}, {"type": "Feature", "properties": {"norad_id": 34146, "name": "IRIDIUM 33 DEB", "group": "iridium-33-debris", "lat": -31.28836202081637, "lon": 165.60519214732426, "alt_km": 719.7711024789942, "timestamp": "2025-12-27T08:36:18.768949+00:00", "meta": {"OBJECT_NAME": "IRIDIUM 33 DEB", "OBJECT_ID": "1997-051DZ", "EPOCH": "2025-12-26T05:10:53.931072", "MEAN_MOTION": 14.49135058, "ECCENTRICITY": 0.0027049, "INCLINATION": 86.2845, "RA_OF_ASC_NODE": 343.8464, "ARG_OF_PERICENTER": 175.3009, "MEAN_ANOMALY": 198.4852, "EPHEMERIS_TYPE": 0, "CLASSIFICATION_TYPE": "U", "NORAD_CAT_ID": 34146, "ELEMENT_SET_NO": 999, "REV_AT_EPOCH": 88302, "BSTAR": 0.00092782, "MEAN_MOTION_DOT": 3.563e-05, "MEAN_MOTION_DDOT": 0}, "tle": {"line1": "1 34146U 97051DZ  25360.21590198  .00003563  00000+0  92782-3 0  9998", "line2": "2 34146  86.2845 343.8464 0027049 175.3009 198.4852 14.49135058883020"}}, "geometry": {"type": "Point", "coordinates": [165.60519214732426, -31.28836202081637]}}, {"type": "Feature", "properties": {"norad_id": 34159, "name": "IRIDIUM 33 DEB", "group": "iridium-33-debris", "lat": 86.31405918339348, "lon": 124.38408712081119, "alt_km": 771.5631433863009, "timestamp": "2025-12-27T08:36:18.768960+00:00", "meta": {"OBJECT_NAME": "IRIDIUM 33 DEB", "OBJECT_ID": "1997-051EN", "EPOCH": "2025-12-27T03:10:49.605312", "MEAN_MOTION": 14.38529458, "ECCENTRICITY": 0.0026307, "INCLINATION": 86.3489, "RA_OF_ASC_NODE": 42.1028, "ARG_OF_PERICENTER": 236.8927, "MEAN_ANOMALY": 122.9746, "EPHEMERIS_TYPE": 0, "CLASSIFICATION_TYPE": "U", "NORAD_CAT_ID": 34159, "ELEMENT_SET_NO": 999, "REV_AT_EPOCH": 88166, "BSTAR": 0.00044785, "MEAN_MOTION_DOT": 1.393e-05, "MEAN_MOTION_DDOT": 0}, "tle": {"line1": "1 34159U 97051EN  25361.13251858  .00001393  00000+0  44785-3 0  9990", "line2": "2 34159  86.3489  42.1028 0026307 236.8927 122.9746 14.38529458881663"}}, "geometry": {"type": "Point", "coordinates": [124.38408712081119, 86.31405918339348]}}, {"type": "Feature", "properties": {"norad_id": 34350, "name": "IRIDIUM 33 DEB", "group": "iridium-33-debris", "lat": 58.95962300434047, "lon": 170.33666895199303, "alt_km": 720.5863215098952, "timestamp": "2025-12-27T08:36:18.768970+00:00", "meta": {"OBJECT_NAME": "IRIDIUM 33 DEB", "OBJECT_ID": "1997-051ES", "EPOCH": "2025-12-26T11:11:35.511072", "MEAN_MOTION": 14.45418943, "ECCENTRICITY": 0.0023531, "INCLINATION": 86.3274, "RA_OF_ASC_NODE": 356.8502, "ARG_OF_PERICENTER": 93.2383, "MEAN_ANOMALY": 67.9711, "EPHEMERIS_TYPE": 0, "CLASSIFICATION_TYPE": "U", "NORAD_CAT_ID": 34350, "ELEMENT_SET_NO": 999, "REV_AT_EPOCH": 88491, "BSTAR": 0.00036255, "MEAN_MOTION_DOT": 1.3e-05, "MEAN_MOTION_DDOT": 0}, "tle": {"line1": "1 34350U 97051ES  25360.46638323  .00001300  00000+0  36255-3 0  9995", "line2": "2 34350  86.3274 356.8502 0023531  93.2383  67.9711 14.45418943884912"}}, "geometry": {"type": "Point", "coordinates": [170.33666895199303, 58.95962300434047]}}, {"type": "Feature", "properties": {"norad_id": 34366, "name": "IRIDIUM 33 DEB", "group": "iridium-33-debris", "lat": -6.662019326816901, "lon": -136.62169777801364, "alt_km": 716.5509078945552, "timestamp": "2025-12-27T08:36:18.768982+00:00", "meta": {"OBJECT_NAME": "IRIDIUM 33 DEB", "OBJECT_ID": "1997-051FJ", "EPOCH": "2025-12-27T04:46:07.017312", "MEAN_MOTION": 14.54168498, "ECCENTRICITY": 0.002303, "INCLINATION": 86.3682, "RA_OF_ASC_NODE": 43.0228, "ARG_OF_PERICENTER": 94.9118, "MEAN_ANOMALY": 335.0579, "EPHEMERIS_TYPE": 0, "CLASSIFICATION_TYPE": "U", "NORAD_CAT_ID": 34366, "ELEMENT_SET_NO": 999, "REV_AT_EPOCH": 88392, "BSTAR": 0.0010581, "MEAN_MOTION_DOT": 4.511e-05, "MEAN_MOTION_DDOT": 0}, "tle": {"line1": "1 34366U 97051FJ  25361.19869233  .00004511  00000+0  10581-2 0  9999", "line2": "2 34366  86.3682  43.0228 0023030  94.9118 335.0579 14.54168498883928"}}, "geometry": {"type": "Point", "coordinates": [-136.62169777801364, -6.662019326816901]}}, {"type": "Feature", "properties": {"norad_id": 34375, "name": "IRIDIUM 33 DEB", "group": "iridium-33-debris", "lat": 2.618213807836962, "lon": 176.97251450038655, "alt_km": 818.7837691015538, "timestamp": "2025-12-27T08:36:18.768993+00:00", "meta": {"OBJECT_NAME": "IRIDIUM 33 DEB", "OBJECT_ID": "1997-051FT", "EPOCH": "2025-12-26T23:01:44.485824", "MEAN_MOTION": 14.1801844, "ECCENTRICITY": 0.0103676, "INCLINATION": 86.4324, "RA_OF_ASC_NODE": 176.9699, "ARG_OF_PERICENTER": 82.2682, "MEAN_ANOMALY": 46.0207, "EPHEMERIS_TYPE": 0, "CLASSIFICATION_TYPE": "U", "NORAD_CAT_ID": 34375, "ELEMENT_SET_NO": 999, "REV_AT_EPOCH": 86913, "BSTAR": 0.00046621, "MEAN_MOTION_DOT": 1.026e-05, "MEAN_MOTION_DDOT": 0}, "tle": {"line1": "1 34375U 97051FT  25360.95954266  .00001026  00000+0  46621-3 0  9996", "line2": "2 34375  86.4324 176.9699 0103676  82.2682  46.0207 14.18018440869136"}}, "geometry": {"type": "Point", "coordinates": [176.97251450038655, 2.618213807836962]}}]}